{
  "links" : {
    "next" : "https://api.nasa.gov/neo/rest/v1/feed?start_date=2015-01-16&end_date=2015-01-16&detailed=true&api_key=t0TVs3DtDT2H8Oy2Zy8m2eVrNsAVKAexjcZXUckd",
    "prev" : "https://api.nasa.gov/neo/rest/v1/feed?start_date=2015-01-14&end_date=2015-01-14&detailed=true&api_key=t0TVs3DtDT2H8Oy2Zy8m2eVrNsAVKAexjcZXUckd",
    "self" : "https://api.nasa.gov/neo/rest/v1/feed?start_date=2015-01-15&end_date=2015-01-15&detailed=true&api_key=t0TVs3DtDT2H8Oy2Zy8m2eVrNsAVKAexjcZXUckd"
  },
  "element_count" : 17,
  "near_earth_objects" : {
    "2015-01-15" : [ {
      "links" : {
        "self" : "https://api.nasa.gov/neo/rest/v1/neo/3704158?api_key=t0TVs3DtDT2H8Oy2Zy8m2eVrNsAVKAexjcZXUckd"
      },
      "neo_reference_id" : "3704158",
      "name" : "(2015 BM4)",
      "nasa_jpl_url" : "http://ssd.jpl.nasa.gov/sbdb.cgi?sstr=3704158",
      "absolute_magnitude_h" : 23.6,
      "estimated_diameter" : {
        "kilometers" : {
          "estimated_diameter_min" : 0.0506471459,
          "estimated_diameter_max" : 0.1132504611
        },
        "meters" : {
          "estimated_diameter_min" : 50.6471458835,
          "estimated_diameter_max" : 113.2504610618
        },
        "miles" : {
          "estimated_diameter_min" : 0.0314706677,
          "estimated_diameter_max" : 0.0703705522
        },
        "feet" : {
          "estimated_diameter_min" : 166.1651821003,
          "estimated_diameter_max" : 371.5566426699
        }
      },
      "is_potentially_hazardous_asteroid" : false,
      "close_approach_data" : [ {
        "close_approach_date" : "2015-01-15",
        "epoch_date_close_approach" : 1421308800000,
        "relative_velocity" : {
          "kilometers_per_second" : "8.3542737055",
          "kilometers_per_hour" : "30075.3853398089",
          "miles_per_hour" : "18687.6748518385"
        },
        "miss_distance" : {
          "astronomical" : "0.0037030656",
          "lunar" : "1.4404925108",
          "kilometers" : "553970.75",
          "miles" : "344221.46875"
        },
        "orbiting_body" : "Earth"
      } ],
      "orbital_data" : {
        "orbit_id" : "13",
        "orbit_determination_date" : "2017-04-06 08:36:15",
        "orbit_uncertainty" : "6",
        "minimum_orbit_intersection" : ".00508091",
        "jupiter_tisserand_invariant" : "3.193",
        "epoch_osculation" : "2458000.5",
        "eccentricity" : ".604803294385403",
        "semi_major_axis" : "2.4831121946961",
        "inclination" : "3.870291175645094",
        "ascending_node_longitude" : "117.4847193417993",
        "orbital_period" : "1429.199781125542",
        "perihelion_distance" : ".9813177590153306",
        "perihelion_argument" : "347.939518717433",
        "aphelion_distance" : "3.98490663037687",
        "perihelion_time" : "2458459.408711810926",
        "mean_anomaly" : "244.4058483399519",
        "mean_motion" : ".2518892073412494",
        "equinox" : "J2000"
      }
    }, {
      "links" : {
        "self" : "https://api.nasa.gov/neo/rest/v1/neo/3707693?api_key=t0TVs3DtDT2H8Oy2Zy8m2eVrNsAVKAexjcZXUckd"
      },
      "neo_reference_id" : "3707693",
      "name" : "(2015 BK311)",
      "nasa_jpl_url" : "http://ssd.jpl.nasa.gov/sbdb.cgi?sstr=3707693",
      "absolute_magnitude_h" : 24.4,
      "estimated_diameter" : {
        "kilometers" : {
          "estimated_diameter_min" : 0.0350392641,
          "estimated_diameter_max" : 0.0783501764
        },
        "meters" : {
          "estimated_diameter_min" : 35.0392641108,
          "estimated_diameter_max" : 78.3501764334
        },
        "miles" : {
          "estimated_diameter_min" : 0.0217723826,
          "estimated_diameter_max" : 0.0486845275
        },
        "feet" : {
          "estimated_diameter_min" : 114.9582192654,
          "estimated_diameter_max" : 257.0543928497
        }
      },
      "is_potentially_hazardous_asteroid" : false,
      "close_approach_data" : [ {
        "close_approach_date" : "2015-01-15",
        "epoch_date_close_approach" : 1421308800000,
        "relative_velocity" : {
          "kilometers_per_second" : "13.6387723334",
          "kilometers_per_hour" : "49099.5804003678",
          "miles_per_hour" : "30508.5698326619"
        },
        "miss_distance" : {
          "astronomical" : "0.060540304",
          "lunar" : "23.5501785278",
          "kilometers" : "9056701",
          "miles" : "5627573"
        },
        "orbiting_body" : "Earth"
      } ],
      "orbital_data" : {
        "orbit_id" : "7",
        "orbit_determination_date" : "2017-04-06 08:36:08",
        "orbit_uncertainty" : "7",
        "minimum_orbit_intersection" : ".0355621",
        "jupiter_tisserand_invariant" : "5.451",
        "epoch_osculation" : "2458000.5",
        "eccentricity" : ".4178123243670835",
        "semi_major_axis" : "1.122201065027311",
        "inclination" : "15.23873015889957",
        "ascending_node_longitude" : "122.4021881230713",
        "orbital_period" : "434.214619620048",
        "perihelion_distance" : ".6533316296410336",
        "perihelion_argument" : "253.0389111823985",
        "aphelion_distance" : "1.591070500413589",
        "perihelion_time" : "2457842.140071801726",
        "mean_anomaly" : "131.293539128793",
        "mean_motion" : ".8290830933214818",
        "equinox" : "J2000"
      }
    }, {
      "links" : {
        "self" : "https://api.nasa.gov/neo/rest/v1/neo/3707694?api_key=t0TVs3DtDT2H8Oy2Zy8m2eVrNsAVKAexjcZXUckd"
      },
      "neo_reference_id" : "3707694",
      "name" : "(2015 BL311)",
      "nasa_jpl_url" : "http://ssd.jpl.nasa.gov/sbdb.cgi?sstr=3707694",
      "absolute_magnitude_h" : 21.0,
      "estimated_diameter" : {
        "kilometers" : {
          "estimated_diameter_min" : 0.1677084622,
          "estimated_diameter_max" : 0.3750075218
        },
        "meters" : {
          "estimated_diameter_min" : 167.7084621628,
          "estimated_diameter_max" : 375.0075217981
        },
        "miles" : {
          "estimated_diameter_min" : 0.1042091748,
          "estimated_diameter_max" : 0.2330187988
        },
        "feet" : {
          "estimated_diameter_min" : 550.2246310023,
          "estimated_diameter_max" : 1230.3396778159
        }
      },
      "is_potentially_hazardous_asteroid" : true,
      "close_approach_data" : [ {
        "close_approach_date" : "2015-01-15",
        "epoch_date_close_approach" : 1421308800000,
        "relative_velocity" : {
          "kilometers_per_second" : "28.5217152637",
          "kilometers_per_hour" : "102678.1749492001",
          "miles_per_hour" : "63800.224873296"
        },
        "miss_distance" : {
          "astronomical" : "0.0247297614",
          "lunar" : "9.6198778152",
          "kilometers" : "3699519.75",
          "miles" : "2298775"
        },
        "orbiting_body" : "Earth"
      } ],
      "orbital_data" : {
        "orbit_id" : "17",
        "orbit_determination_date" : "2017-04-06 08:36:08",
        "orbit_uncertainty" : "7",
        "minimum_orbit_intersection" : ".0152314",
        "jupiter_tisserand_invariant" : "2.920",
        "epoch_osculation" : "2458000.5",
        "eccentricity" : ".8442414458880482",
        "semi_major_axis" : "2.368444796168035",
        "inclination" : "1.711397364813829",
        "ascending_node_longitude" : "220.473779869961",
        "orbital_period" : "1331.353323635149",
        "perihelion_distance" : ".3689055369451096",
        "perihelion_argument" : "143.1351202459863",
        "aphelion_distance" : "4.36798405539096",
        "perihelion_time" : "2458334.072419343199",
        "mean_anomaly" : "269.8015013507709",
        "mean_motion" : ".270401548265978",
        "equinox" : "J2000"
      }
    } ]
  }
}